{
  "type": "FeatureCollection",
  "features": [
    {
      "type": "Feature",
      "properties": {
        "norad_id": 30090,
        "name": "FENGYUN 1C DEB",
        "group": "fengyun-1c-debris",
        "lat": -43.922134476640345,
        "lon": -39.06740476935112,
        "alt_km": 799.391769941798,
        "timestamp": "2025-12-03T17:47:50.991371+00:00",
        "meta_object_name": "FENGYUN 1C DEB",
        "meta_object_id": "1999-025QT",
        "meta_epoch": "2025-12-03T10:10:30.647712",
        "meta_mean_motion": 14.2900254,
        "meta_eccentricity": 0.0058162,
        "meta_inclination": 99.4091,
        "meta_ra_of_asc_node": 149.7793,
        "meta_arg_of_pericenter": 138.3155,
        "meta_mean_anomaly": 252.671,
        "meta_ephemeris_type": 0,
        "meta_classification_type": "U",
        "meta_norad_cat_id": 30090,
        "meta_element_set_no": 999,
        "meta_rev_at_epoch": 98137,
        "meta_bstar": 0.0004452,
        "meta_mean_motion_dot": 1.097e-05,
        "meta_mean_motion_ddot": 0,
        "tle_line1": "1 30090U 99025QT  25337.42396583  .00001097  00000+0  44520-3 0  9991",
        "tle_line2": "2 30090  99.4091 149.7793 0058162 138.3155 252.6710 14.29002540981372"
      },
      "geometry": {
        "type": "Point",
        "coordinates": [
          -39.06740476935112,
          -43.922134476640345
        ]
      }
    },
    {
      "type": "Feature",
      "properties": {
        "norad_id": 30092,
        "name": "FENGYUN 1C DEB",
        "group": "fengyun-1c-debris",
        "lat": -35.959416000518985,
        "lon": -29.912682409367193,
        "alt_km": 738.6908272337141,
        "timestamp": "2025-12-03T17:47:50.991381+00:00",
        "meta_object_name": "FENGYUN 1C DEB",
        "meta_object_id": "1999-025QV",
        "meta_epoch": "2025-12-02T10:53:41.466624",
        "meta_mean_motion": 14.39078952,
        "meta_eccentricity": 0.00826469,
        "meta_inclination": 98.9234,
        "meta_ra_of_asc_node": 155.2931,
        "meta_arg_of_pericenter": 281.0386,
        "meta_mean_anomaly": 109.2428,
        "meta_ephemeris_type": 0,
        "meta_classification_type": "U",
        "meta_norad_cat_id": 30092,
        "meta_element_set_no": 999,
        "meta_rev_at_epoch": 98601,
        "meta_bstar": 0.0006882869,
        "meta_mean_motion_dot": 2.165e-05,
        "meta_mean_motion_ddot": 0,
        "tle_line1": "1 30092U 99025QV  25336.45395216  .00002165  00000+0  68829-3 0  9992",
        "tle_line2": "2 30092  98.9234 155.2931 0082646 281.0386 109.2428 14.39078952986019"
      },
      "geometry": {
        "type": "Point",
        "coordinates": [
          -29.912682409367193,
          -35.959416000518985
        ]
      }
    },
    {
      "type": "Feature",
      "properties": {
        "norad_id": 30093,
        "name": "FENGYUN 1C DEB",
        "group": "fengyun-1c-debris",
        "lat": -74.10217403290027,
        "lon": -114.81905298321514,
        "alt_km": 745.6111612819777,
        "timestamp": "2025-12-03T17:47:50.991391+00:00",
        "meta_object_name": "FENGYUN 1C DEB",
        "meta_object_id": "1999-025QW",
        "meta_epoch": "2025-12-03T02:17:57.054336",
        "meta_mean_motion": 14.4359079,
        "meta_eccentricity": 0.0070725,
        "meta_inclination": 98.8685,
        "meta_ra_of_asc_node": 211.2655,
        "meta_arg_of_pericenter": 6.1004,
        "meta_mean_anomaly": 163.9066,
        "meta_ephemeris_type": 0,
        "meta_classification_type": "U",
        "meta_norad_cat_id": 30093,
        "meta_element_set_no": 999,
        "meta_rev_at_epoch": 98664,
        "meta_bstar": 0.0012634583,
        "meta_mean_motion_dot": 4.367e-05,
        "meta_mean_motion_ddot": 0,
        "tle_line1": "1 30093U 99025QW  25337.09579924  .00004367  00000+0  12635-2 0  9993",
        "tle_line2": "2 30093  98.8685 211.2655 0070725   6.1004 163.9066 14.43590790986641"
      },
      "geometry": {
        "type": "Point",
        "coordinates": [
          -114.81905298321514,
          -74.10217403290027
        ]
      }
    },
    {
      "type": "Feature",
      "properties": {
        "norad_id": 30095,
        "name": "FENGYUN 1C DEB",
        "group": "fengyun-1c-debris",
        "lat": -69.34460709001362,
        "lon": 51.987710982349924,
        "alt_km": 669.3850425140627,
        "timestamp": "2025-12-03T17:47:50.991402+00:00",
        "meta_object_name": "FENGYUN 1C DEB",
        "meta_object_id": "1999-025QY",
        "meta_epoch": "2025-12-03T05:18:34.926048",
        "meta_mean_motion": 14.81253319,
        "meta_eccentricity": 0.0168446,
        "meta_inclination": 99.2198,
        "meta_ra_of_asc_node": 256.9123,
        "meta_arg_of_pericenter": 2.1564,
        "meta_mean_anomaly": 358.0334,
        "meta_ephemeris_type": 0,
        "meta_classification_type": "U",
        "meta_norad_cat_id": 30095,
        "meta_element_set_no": 999,
        "meta_rev_at_epoch": 99194,
        "meta_bstar": 0.0029063,
        "meta_mean_motion_dot": 0.00028986,
        "meta_mean_motion_ddot": 0,
        "tle_line1": "1 30095U 99025QY  25337.22123757  .00028986  00000+0  29063-2 0  9995",
        "tle_line2": "2 30095  99.2198 256.9123 0168446   2.1564 358.0334 14.81253319991947"
      },
      "geometry": {
        "type": "Point",
        "coordinates": [
          51.987710982349924,
          -69.34460709001362
        ]
      }
    },
    {
      "type": "Feature",
      "properties": {
        "norad_id": 30096,
        "name": "FENGYUN 1C DEB",
        "group": "fengyun-1c-debris",
        "lat": 75.40858478455003,
        "lon": 18.266296018969072,
        "alt_km": 835.4809029786093,
        "timestamp": "2025-12-03T17:47:50.991412+00:00",
        "meta_object_name": "FENGYUN 1C DEB",
        "meta_object_id": "1999-025QZ",
        "meta_epoch": "2025-12-03T04:00:32.835744",
        "meta_mean_motion": 14.31662202,
        "meta_eccentricity": 0.00788545,
        "meta_inclination": 99.1486,
        "meta_ra_of_asc_node": 55.907,
        "meta_arg_of_pericenter": 260.3714,
        "meta_mean_anomaly": 98.8552,
        "meta_ephemeris_type": 0,
        "meta_classification_type": "U",
        "meta_norad_cat_id": 30096,
        "meta_element_set_no": 999,
        "meta_rev_at_epoch": 98409,
        "meta_bstar": 0.00042975617,
        "meta_mean_motion_dot": 1.136e-05,
        "meta_mean_motion_ddot": 0,
        "tle_line1": "1 30096U 99025QZ  25337.16704671  .00001136  00000+0  42976-3 0  9996",
        "tle_line2": "2 30096  99.1486  55.9070 0078854 260.3714  98.8552 14.31662202984092"
      },
      "geometry": {
        "type": "Point",
        "coordinates": [
          18.266296018969072,
          75.40858478455003
        ]
      }
    },
    {
      "type": "Feature",
      "properties": {
        "norad_id": 30099,
        "name": "FENGYUN 1C DEB",
        "group": "fengyun-1c-debris",
        "lat": 33.13775502737174,
        "lon": -124.09458517840355,
        "alt_km": 828.3112096066834,
        "timestamp": "2025-12-03T17:47:50.991422+00:00",
        "meta_object_name": "FENGYUN 1C DEB",
        "meta_object_id": "1999-025RC",
        "meta_epoch": "2025-12-03T03:46:27.962976",
        "meta_mean_motion": 14.25913551,
        "meta_eccentricity": 0.0060872,
        "meta_inclination": 98.5417,
        "meta_ra_of_asc_node": 49.7053,
        "meta_arg_of_pericenter": 273.1532,
        "meta_mean_anomaly": 116.1228,
        "meta_ephemeris_type": 0,
        "meta_classification_type": "U",
        "meta_norad_cat_id": 30099,
        "meta_element_set_no": 999,
        "meta_rev_at_epoch": 98053,
        "meta_bstar": 0.00038971603,
        "meta_mean_motion_dot": 9.03e-06,
        "meta_mean_motion_ddot": 0,
        "tle_line1": "1 30099U 99025RC  25337.15726809  .00000903  00000+0  38972-3 0  9997",
        "tle_line2": "2 30099  98.5417  49.7053 0060872 273.1532 116.1228 14.25913551980533"
      },
      "geometry": {
        "type": "Point",
        "coordinates": [
          -124.09458517840355,
          33.13775502737174
        ]
      }
    },
    {
      "type": "Feature",
      "properties": {
        "norad_id": 30102,
        "name": "FENGYUN 1C DEB",
        "group": "fengyun-1c-debris",
        "lat": 80.47257882647443,
        "lon": -132.61069143198253,
        "alt_km": 771.3391611211691,
        "timestamp": "2025-12-03T17:47:50.991432+00:00",
        "meta_object_name": "FENGYUN 1C DEB",
        "meta_object_id": "1999-025RF",
        "meta_epoch": "2025-12-03T11:21:10.910880",
        "meta_mean_motion": 14.22105298,
        "meta_eccentricity": 0.0142282,
        "meta_inclination": 98.3794,
        "meta_ra_of_asc_node": 345.707,
        "meta_arg_of_pericenter": 27.2351,
        "meta_mean_anomaly": 131.8676,
        "meta_ephemeris_type": 0,
        "meta_classification_type": "U",
        "meta_norad_cat_id": 30102,
        "meta_element_set_no": 999,
        "meta_rev_at_epoch": 97826,
        "meta_bstar": 0.00050507,
        "meta_mean_motion_dot": 1.199e-05,
        "meta_mean_motion_ddot": 0,
        "tle_line1": "1 30102U 99025RF  25337.47304295  .00001199  00000+0  50507-3 0  9994",
        "tle_line2": "2 30102  98.3794 345.7070 0142282  27.2351 131.8676 14.22105298978261"
      },
      "geometry": {
        "type": "Point",
        "coordinates": [
          -132.61069143198253,
          80.47257882647443
        ]
      }
    }
  ]
}